NORAD_CAT_ID,OBJECT_NAME,OBJECT_TYPE,EPOCH,MEAN_MOTION,ECCENTRICITY,INCLINATION,RA_OF_ASC_NODE,ARG_OF_PERICENTER,MEAN_ANOMALY,BSTAR,MEAN_MOTION_DOT,MEAN_MOTION_DDOT,TLE_LINE0,TLE_LINE1,TLE_LINE2,SEMIMAJOR_AXIS,PERIOD,APOGEE,PERIGEE,DECAYED
55939.0,STARLINK-5918,PAYLOAD,2024-05-03 05:31:29,14.98332601,0.0003213,69.9994,187.4993,269.5112,90.5679,3.8212e-05,3.63e-06,0.0,0 STARLINK-5918,1 55939U 23037AB  24124.23020257  .00000363  00000-0  38212-4 0  9992,2 55939  69.9994 187.4993 0003213 269.5112  90.5679 14.98332601 63142,6950.185,96.107,574.283,569.817,0.0
55939.0,STARLINK-5918,PAYLOAD,2024-05-03 13:32:09,14.98337418,0.0003084,69.9998,186.6584,268.5068,91.5738,8.5017e-05,9.22e-06,0.0,0 STARLINK-5918,1 55939U 23037AB  24124.56399717  .00000922  00000-0  85017-4 0  9994,2 55939  69.9998 186.6584 0003084 268.5068  91.5738 14.98337418 62853,6950.17,96.107,574.178,569.892,0.0
55939.0,STARLINK-5918,PAYLOAD,2024-05-03 21:32:50,14.983291,0.0003152,69.9995,185.8166,270.1479,89.9319,1.965e-05,1.41e-06,0.0,0 STARLINK-5918,1 55939U 23037AB  24124.89780293  .00000141  00000-0  19650-4 0  9996,2 55939  69.9995 185.8166 0003152 270.1479  89.9319 14.98329100 62909,6950.196,96.107,574.251,569.87,0.0
55939.0,STARLINK-5918,PAYLOAD,2024-05-04 05:33:31,14.98323767,0.0002498,69.9993,184.9747,271.9605,88.1268,-3.4059e-05,-4.99e-06,0.0,0 STARLINK-5918,1 55939U 23037AB  24125.23161115 -.00000499  00000-0 -34059-4 0  9999,2 55939  69.9993 184.9747 0002498 271.9605  88.1268 14.98323767 63294,6950.212,96.107,573.813,570.341,0.0
55939.0,STARLINK-5918,PAYLOAD,2024-05-04 13:34:12,14.98314385,0.0002875,70.0001,184.134,268.3008,91.7821,-0.00010606,-1.358e-05,0.0,0 STARLINK-5918,1 55939U 23037AB  24125.56542048 -.00001358  00000-0 -10606-3 0  9999,2 55939  70.0001 184.1340 0002875 268.3008  91.7821 14.98314385 63341,6950.241,96.108,574.104,570.108,0.0
55939.0,STARLINK-5918,PAYLOAD,2024-05-05 03:59:24,14.98321964,0.0003188,69.9991,182.6192,270.6342,89.4452,-9.365e-05,-1.21e-05,0.0,0 STARLINK-5918,1 55939U 23037AB  24126.16625874 -.00001210  00000-0 -93650-4 0  9993,2 55939  69.9991 182.6192 0003188 270.6342  89.4452 14.98321964 63434,6950.218,96.108,574.298,569.867,0.0
55939.0,STARLINK-5918,PAYLOAD,2024-05-05 13:36:12,14.9832601,0.0003068,69.9997,181.61,270.1599,89.9208,-3.2745e-05,-4.84e-06,0.0,0 STARLINK-5918,1 55939U 23037AB  24126.56681650 -.00000484  00000-0 -32745-4 0  9991,2 55939  69.9997 181.6100 0003068 270.1599  89.9208 14.98326010 63154,6950.205,96.107,574.203,569.938,0.0
55939.0,STARLINK-5918,PAYLOAD,2024-05-06 04:01:25,14.98322787,0.0003006,69.9994,180.0945,270.1519,89.9295,0.00019541,2.239e-05,0.0,0 STARLINK-5918,1 55939U 23037AB  24127.16765360  .00002239  00000-0  19541-3 0  9995,2 55939  69.9994 180.0945 0003006 270.1519  89.9295 14.98322787 63585,6950.215,96.107,574.169,569.991,0.0
55939.0,STARLINK-5918,PAYLOAD,2024-05-06 13:38:13,14.98331144,0.0003009,69.9994,179.0845,270.3717,89.7097,0.00023478,2.71e-05,0.0,0 STARLINK-5918,1 55939U 23037AB  24127.56820870  .00002710  00000-0  23478-3 0  9995,2 55939  69.9994 179.0845 0003009 270.3717  89.7097 14.98331144 63649,6950.189,96.107,574.146,569.963,0.0
55939.0,STARLINK-5918,PAYLOAD,2024-05-07 12:04:06,14.98331021,0.0002945,69.9997,176.7283,269.987,90.0951,8.2296e-05,8.89e-06,0.0,0 STARLINK-5918,1 55939U 23037AB  24128.50285215  .00000889  00000-0  82296-4 0  9997,2 55939  69.9997 176.7283 0002945 269.9870  90.0951 14.98331021 63787,6950.19,96.107,574.102,570.008,0.0
55939.0,STARLINK-5918,PAYLOAD,2024-05-07 13:40:14,14.98330527,0.0002953,69.9996,176.5599,270.4874,89.5946,7.4657e-05,7.98e-06,0.0,0 STARLINK-5918,1 55939U 23037AB  24128.56961261  .00000798  00000-0  74657-4 0  9996,2 55939  69.9996 176.5599 0002953 270.4874  89.5946 14.98330527 63455,6950.191,96.107,574.109,570.004,0.0
55939.0,STARLINK-5918,PAYLOAD,2024-05-08 12:06:06,14.98342409,0.0002955,69.9995,174.2035,269.5476,90.5345,3.2695e-05,2.97e-06,0.0,0 STARLINK-5918,1 55939U 23037AB  24129.50424196  .00000297  00000-0  32695-4 0  9992,2 55939  69.9995 174.2035 0002955 269.5476  90.5345 14.98342409 63933,6950.155,96.106,574.073,569.966,0.0
55939.0,STARLINK-5918,PAYLOAD,2024-05-08 13:42:14,14.98342925,0.0002958,69.9995,174.0351,269.6301,90.4519,3.7594e-05,3.56e-06,0.0,0 STARLINK-5918,1 55939U 23037AB  24129.57100097  .00000356  00000-0  37594-4 0  9999,2 55939  69.9995 174.0351 0002958 269.6301  90.4519 14.98342925 63602,6950.153,96.106,574.074,569.962,0.0
55939.0,STARLINK-5918,PAYLOAD,2024-05-08 20:06:46,14.98339936,0.0002939,69.9995,173.3618,269.2677,90.8145,-5.3828e-06,-1.57e-06,0.0,0 STARLINK-5918,1 55939U 23037AB  24129.83804173 -.00000157  00000-0 -53828-5 0  9994,2 55939  69.9995 173.3618 0002939 269.2677  90.8145 14.98339936 63642,6950.162,96.106,574.07,569.985,0.0
55939.0,STARLINK-5918,PAYLOAD,2024-05-09 05:43:35,14.98335108,0.0002893,69.9996,172.3518,268.0422,92.0405,1.4814e-05,8.4e-07,0.0,0 STARLINK-5918,1 55939U 23037AB  24130.23860229  .00000084  00000-0  14814-4 0  9992,2 55939  69.9996 172.3518 0002893 268.0422  92.0405 14.98335108 64040,6950.177,96.107,574.053,570.031,0.0
55939.0,STARLINK-5918,PAYLOAD,2024-05-09 12:08:07,14.98334461,0.0002904,69.9997,171.6787,267.3656,92.717,6.7864e-06,-1.2e-07,0.0,0 STARLINK-5918,1 55939U 23037AB  24130.50564202 -.00000012  00000-0  67864-5 0  9990,2 55939  69.9997 171.6787 0002904 267.3656  92.7170 14.98334461 63748,6950.179,96.107,574.062,570.026,0.0
55939.0,STARLINK-5918,PAYLOAD,2024-05-10 12:10:08,14.98333307,0.0002902,69.9997,169.154,267.1997,92.883,-4.3764e-05,-6.15e-06,0.0,0 STARLINK-5918,1 55939U 23037AB  24131.50704178 -.00000615  00000-0 -43764-4 0  9991,2 55939  69.9997 169.1540 0002902 267.1997  92.8830 14.98333307 64238,6950.183,96.107,574.065,570.031,0.0
55939.0,STARLINK-5918,PAYLOAD,2024-05-10 20:10:48,14.98332671,0.0002911,69.9998,168.3127,267.1349,92.9477,-4.1314e-05,-5.86e-06,0.0,0 STARLINK-5918,1 55939U 23037AB  24131.84084138 -.00000586  00000-0 -41314-4 0  9991,2 55939  69.9998 168.3127 0002911 267.1349  92.9477 14.98332671 63940,6950.185,96.107,574.073,570.026,0.0
55939.0,STARLINK-5918,PAYLOAD,2024-05-11 12:12:07,14.9835239,0.0002465,70.0005,166.6293,265.6113,94.4764,0.00027658,3.21e-05,0.0,0 STARLINK-5918,1 55939U 23037AB  24132.50841868  .00003210  00000-0  27658-3 0  9995,2 55939  70.0005 166.6293 0002465 265.6113  94.4764 14.98352390 64388,6950.124,96.106,573.702,570.275,0.0
55939.0,STARLINK-5918,PAYLOAD,2024-05-11 20:12:48,14.98369171,0.0001508,70.0049,165.792,300.8384,59.2626,-0.00051263,-6.21e-05,0.0,0 STARLINK-5918,1 55939U 23037AB  24132.84222602 -.00006210  00000-0 -51263-3 0  9995,2 55939  70.0049 165.7920 0001508 300.8384  59.2626 14.98369171 64091,6950.072,96.104,572.985,570.889,0.0
55939.0,STARLINK-5918,PAYLOAD,2024-05-12 04:13:29,14.98325041,0.0002682,69.9991,164.9448,261.1607,98.9248,-7.9514e-06,-1.88e-06,0.0,0 STARLINK-5918,1 55939U 23037AB  24133.17604067 -.00000188  00000-0 -79514-5 0  9990,2 55939  69.9991 164.9448 0002682 261.1607  98.9248 14.98325041 64482,6950.208,96.107,573.937,570.209,0.0
55939.0,STARLINK-5918,PAYLOAD,2024-05-12 12:14:11,14.98315586,0.0003214,69.9989,164.1043,263.6588,96.4205,-0.00015644,-1.958e-05,0.0,0 STARLINK-5918,1 55939U 23037AB  24133.50985133 -.00001958  00000-0 -15644-3 0  9991,2 55939  69.9989 164.1043 0003214 263.6588  96.4205 14.98315586 64534,6950.237,96.108,574.336,569.869,0.0
55939.0,STARLINK-5918,PAYLOAD,2024-05-13 12:16:12,14.98321435,0.0003122,69.9989,161.5796,257.0373,103.0438,-0.00017276,-2.153e-05,0.0,0 STARLINK-5918,1 55939U 23037AB  24134.51125526 -.00002153  00000-0 -17276-3 0  9996,2 55939  69.9989 161.5796 0003122 257.0373 103.0438 14.98321435 64686,6950.219,96.108,574.254,569.915,0.0
55939.0,STARLINK-5918,PAYLOAD,2024-05-13 18:40:44,14.98333993,0.0002986,69.9988,160.9057,267.2389,92.8428,-0.00025495,-3.134e-05,0.0,0 STARLINK-5918,1 55939U 23037AB  24134.77829080 -.00003134  00000-0 -25495-3 0  9992,2 55939  69.9988 160.9057 0002986 267.2389  92.8428 14.98333993 64726,6950.181,96.107,574.121,569.97,0.0
55939.0,STARLINK-5918,PAYLOAD,2024-05-14 04:17:32,14.98314832,0.0003239,69.9986,159.8957,261.1513,98.9279,0.00020712,2.378e-05,0.0,0 STARLINK-5918,1 55939U 23037AB  24135.17885372  .00002378  00000-0  20712-3 0  9997,2 55939  69.9986 159.8957 0003239 261.1513  98.9279 14.98314832 64782,6950.24,96.108,574.356,569.854,0.0
55939.0,STARLINK-5918,PAYLOAD,2024-05-14 10:42:05,14.98318123,0.0003245,69.9985,159.2223,261.7681,98.311,0.00020748,2.383e-05,0.0,0 STARLINK-5918,1 55939U 23037AB  24135.44589447  .00002383  00000-0  20748-3 0  9996,2 55939  69.9985 159.2223 0003245 261.7681  98.3110 14.98318123 64482,6950.23,96.108,574.35,569.839,0.0
55939.0,STARLINK-5918,PAYLOAD,2024-05-14 18:42:45,14.98322152,0.0003186,69.9987,158.3807,261.4376,98.6422,0.00022412,2.582e-05,0.0,0 STARLINK-5918,1 55939U 23037AB  24135.77969441  .00002582  00000-0  22412-3 0  9999,2 55939  69.9987 158.3807 0003186 261.4376  98.6422 14.98322152 64536,6950.217,96.108,574.296,569.868,0.0
55939.0,STARLINK-5918,PAYLOAD,2024-05-15 05:55:42,14.98327231,0.0003273,69.9984,157.2022,261.2538,98.8251,0.00021754,2.503e-05,0.0,0 STARLINK-5918,1 55939U 23037AB  24136.24701395  .00002503  00000-0  21754-3 0  9995,2 55939  69.9984 157.2022 0003273 261.2538  98.8251 14.98327231 64945,6950.201,96.107,574.341,569.792,0.0
55939.0,STARLINK-5918,PAYLOAD,2024-05-15 10:44:06,14.98331001,0.0003237,69.9985,156.6974,260.6808,99.3985,0.00025777,2.984e-05,0.0,0 STARLINK-5918,1 55939U 23037AB  24136.44729173  .00002984  00000-0  25777-3 0  9993,2 55939  69.9985 156.6974 0003237 260.6808  99.3985 14.98331001 64634,6950.19,96.107,574.305,569.805,0.0
55939.0,STARLINK-5918,PAYLOAD,2024-05-16 04:21:33,14.98342543,0.0003212,69.9985,154.8459,260.0539,100.0257,0.00020766,2.386e-05,0.0,0 STARLINK-5918,1 55939U 23037AB  24137.18164349  .00002386  00000-0  20766-3 0  9992,2 55939  69.9985 154.8459 0003212 260.0539 100.0257 14.98342543 65085,6950.154,96.106,574.251,569.787,0.0
